{"fetched_at":"2026-07-20T07:40:22.620Z","source":"https://celestrak.org/NORAD/elements/gp.php?GROUP=oneweb&FORMAT=JSON","constellation":"oneweb","records":[{"OBJECT_NAME":"ONEWEB-0233","OBJECT_ID":"2021-045AE","EPOCH":"2026-07-19T04:35:08.631168","CLASSIFICATION_TYPE":"U","MEAN_MOTION":13.15550642,"ECCENTRICITY":0.00022917,"INCLINATION":87.8978,"RA_OF_ASC_NODE":252.8575,"ARG_OF_PERICENTER":102.4748,"MEAN_ANOMALY":257.6639,"EPHEMERIS_TYPE":0,"NORAD_CAT_ID":48795,"ELEMENT_SET_NO":999,"REV_AT_EPOCH":24850,"BSTAR":-0.000004568525,"MEAN_MOTION_DOT":1.1e-7,"MEAN_MOTION_DDOT":0},{"OBJECT_NAME":"ONEWEB-0190","OBJECT_ID":"2021-045AF","EPOCH":"2026-07-19T13:24:42.975936","CLASSIFICATION_TYPE":"U","MEAN_MOTION":13.15548514,"ECCENTRICITY":0.0002385,"INCLINATION":87.8986,"RA_OF_ASC_NODE":252.7478,"ARG_OF_PERICENTER":113.1881,"MEAN_ANOMALY":246.95,"EPHEMERIS_TYPE":0,"NORAD_CAT_ID":48796,"ELEMENT_SET_NO":999,"REV_AT_EPOCH":24862,"BSTAR":-0.00044319,"MEAN_MOTION_DOT":-0.00000154,"MEAN_MOTION_DDOT":0},{"OBJECT_NAME":"ONEWEB-0236","OBJECT_ID":"2021-045AG","EPOCH":"2026-07-19T04:42:12.570912","CLASSIFICATION_TYPE":"U","MEAN_MOTION":13.15548506,"ECCENTRICITY":0.00020837,"INCLINATION":87.8975,"RA_OF_ASC_NODE":252.828,"ARG_OF_PERICENTER":94.0293,"MEAN_ANOMALY":266.1076,"EPHEMERIS_TYPE":0,"NORAD_CAT_ID":48797,"ELEMENT_SET_NO":999,"REV_AT_EPOCH":24846,"BSTAR":0.00011819896,"MEAN_MOTION_DOT":5.7e-7,"MEAN_MOTION_DDOT":0},{"OBJECT_NAME":"ONEWEB-0248","OBJECT_ID":"2021-045AH","EPOCH":"2026-07-19T15:57:35.220672","CLASSIFICATION_TYPE":"U","MEAN_MOTION":13.15548759,"ECCENTRICITY":0.0002381,"INCLINATION":87.8996,"RA_OF_ASC_NODE":252.721,"ARG_OF_PERICENTER":103.1906,"MEAN_ANOMALY":256.949,"EPHEMERIS_TYPE":0,"NORAD_CAT_ID":48798,"ELEMENT_SET_NO":999,"REV_AT_EPOCH":24868,"BSTAR":0.00031091,"MEAN_MOTION_DOT":0.0000013,"MEAN_MOTION_DDOT":0},{"OBJECT_NAME":"ONEWEB-0225","OBJECT_ID":"2021-045AJ","EPOCH":"2026-07-19T16:29:32.797824","CLASSIFICATION_TYPE":"U","MEAN_MOTION":13.15548224,"ECCENTRICITY":0.0002299,"INCLINATION":87.8987,"RA_OF_ASC_NODE":252.7238,"ARG_OF_PERICENTER":110.716,"MEAN_ANOMALY":249.4217,"EPHEMERIS_TYPE":0,"NORAD_CAT_ID":48799,"ELEMENT_SET_NO":999,"REV_AT_EPOCH":24869,"BSTAR":0.000086531,"MEAN_MOTION_DOT":4.5e-7,"MEAN_MOTION_DDOT":0},{"OBJECT_NAME":"ONEWEB-0215","OBJECT_ID":"2021-045AK","EPOCH":"2026-07-19T04:49:02.340192","CLASSIFICATION_TYPE":"U","MEAN_MOTION":13.15549762,"ECCENTRICITY":0.00024848,"INCLINATION":87.8987,"RA_OF_ASC_NODE":252.805,"ARG_OF_PERICENTER":111.6154,"MEAN_ANOMALY":248.5242,"EPHEMERIS_TYPE":0,"NORAD_CAT_ID":48800,"ELEMENT_SET_NO":999,"REV_AT_EPOCH":24850,"BSTAR":0.000099947794,"MEAN_MOTION_DOT":5e-7,"MEAN_MOTION_DDOT":0},{"OBJECT_NAME":"ONEWEB-0216","OBJECT_ID":"2021-045AL","EPOCH":"2026-07-19T15:59:52.931040","CLASSIFICATION_TYPE":"U","MEAN_MOTION":13.15548359,"ECCENTRICITY":0.0001937,"INCLINATION":87.8987,"RA_OF_ASC_NODE":252.7259,"ARG_OF_PERICENTER":96.5957,"MEAN_ANOMALY":263.5394,"EPHEMERIS_TYPE":0,"NORAD_CAT_ID":48801,"ELEMENT_SET_NO":999,"REV_AT_EPOCH":24857,"BSTAR":0.00020293,"MEAN_MOTION_DOT":8.9e-7,"MEAN_MOTION_DDOT":0},{"OBJECT_NAME":"ONEWEB-0239","OBJECT_ID":"2021-045AM","EPOCH":"2026-07-19T16:06:43.884000","CLASSIFICATION_TYPE":"U","MEAN_MOTION":13.15548019,"ECCENTRICITY":0.000277,"INCLINATION":87.8968,"RA_OF_ASC_NODE":252.7283,"ARG_OF_PERICENTER":107.5792,"MEAN_ANOMALY":252.5641,"EPHEMERIS_TYPE":0,"NORAD_CAT_ID":48802,"ELEMENT_SET_NO":999,"REV_AT_EPOCH":24861,"BSTAR":0.00026592,"MEAN_MOTION_DOT":0.00000113,"MEAN_MOTION_DDOT":0},{"OBJECT_NAME":"ONEWEB-0249","OBJECT_ID":"2021-060A","EPOCH":"2026-07-19T12:05:09.395808","CLASSIFICATION_TYPE":"U","MEAN_MOTION":13.16592317,"ECCENTRICITY":0.00021458,"INCLINATION":87.9075,"RA_OF_ASC_NODE":222.3588,"ARG_OF_PERICENTER":93.7175,"MEAN_ANOMALY":266.4201,"EPHEMERIS_TYPE":0,"NORAD_CAT_ID":48967,"ELEMENT_SET_NO":999,"REV_AT_EPOCH":24386,"BSTAR":0.00016820496,"MEAN_MOTION_DOT":7.7e-7,"MEAN_MOTION_DDOT":0},{"OBJECT_NAME":"ONEWEB-0250","OBJECT_ID":"2021-060B","EPOCH":"2026-07-19T18:12:27.366048","CLASSIFICATION_TYPE":"U","MEAN_MOTION":13.2583564,"ECCENTRICITY":0.000302,"INCLINATION":87.9079,"RA_OF_ASC_NODE":219.958,"ARG_OF_PERICENTER":81.5454,"MEAN_ANOMALY":278.6024,"EPHEMERIS_TYPE":0,"NORAD_CAT_ID":48968,"ELEMENT_SET_NO":999,"REV_AT_EPOCH":24453,"BSTAR":0.000055553,"MEAN_MOTION_DOT":3.8e-7,"MEAN_MOTION_DDOT":0},{"OBJECT_NAME":"ONEWEB-0252","OBJECT_ID":"2021-060D","EPOCH":"2026-07-19T11:00:11.545344","CLASSIFICATION_TYPE":"U","MEAN_MOTION":13.16595585,"ECCENTRICITY":0.00018793,"INCLINATION":87.908,"RA_OF_ASC_NODE":222.3598,"ARG_OF_PERICENTER":96.6456,"MEAN_ANOMALY":263.4889,"EPHEMERIS_TYPE":0,"NORAD_CAT_ID":48970,"ELEMENT_SET_NO":999,"REV_AT_EPOCH":24390,"BSTAR":-0.00010674964,"MEAN_MOTION_DOT":-2.8e-7,"MEAN_MOTION_DDOT":0},{"OBJECT_NAME":"ONEWEB-0253","OBJECT_ID":"2021-060E","EPOCH":"2026-07-19T10:44:14.115840","CLASSIFICATION_TYPE":"U","MEAN_MOTION":13.16595633,"ECCENTRICITY":0.0002166,"INCLINATION":87.9076,"RA_OF_ASC_NODE":222.367,"ARG_OF_PERICENTER":91.0609,"MEAN_ANOMALY":269.0771,"EPHEMERIS_TYPE":0,"NORAD_CAT_ID":48971,"ELEMENT_SET_NO":999,"REV_AT_EPOCH":24383,"BSTAR":0.00023991023,"MEAN_MOTION_DOT":0.00000105,"MEAN_MOTION_DDOT":0},{"OBJECT_NAME":"ONEWEB-0254","OBJECT_ID":"2021-060F","EPOCH":"2026-07-19T18:15:40.216032","CLASSIFICATION_TYPE":"U","MEAN_MOTION":13.16595387,"ECCENTRICITY":0.0002306,"INCLINATION":87.9081,"RA_OF_ASC_NODE":222.3032,"ARG_OF_PERICENTER":97.7816,"MEAN_ANOMALY":262.3576,"EPHEMERIS_TYPE":0,"NORAD_CAT_ID":48972,"ELEMENT_SET_NO":999,"REV_AT_EPOCH":24387,"BSTAR":0.00016805,"MEAN_MOTION_DOT":7.7e-7,"MEAN_MOTION_DDOT":0},{"OBJECT_NAME":"ONEWEB-0255","OBJECT_ID":"2021-060G","EPOCH":"2026-07-19T19:10:23.326176","CLASSIFICATION_TYPE":"U","MEAN_MOTION":13.1659377,"ECCENTRICITY":0.0002188,"INCLINATION":87.9076,"RA_OF_ASC_NODE":222.3019,"ARG_OF_PERICENTER":96.8198,"MEAN_ANOMALY":263.3182,"EPHEMERIS_TYPE":0,"NORAD_CAT_ID":48973,"ELEMENT_SET_NO":999,"REV_AT_EPOCH":24395,"BSTAR":-0.0001538,"MEAN_MOTION_DOT":-4.6e-7,"MEAN_MOTION_DDOT":0},{"OBJECT_NAME":"ONEWEB-0256","OBJECT_ID":"2021-060H","EPOCH":"2026-07-19T12:30:16.403616","CLASSIFICATION_TYPE":"U","MEAN_MOTION":13.16595235,"ECCENTRICITY":0.00019206,"INCLINATION":87.9075,"RA_OF_ASC_NODE":222.3596,"ARG_OF_PERICENTER":94.6178,"MEAN_ANOMALY":265.5172,"EPHEMERIS_TYPE":0,"NORAD_CAT_ID":48974,"ELEMENT_SET_NO":999,"REV_AT_EPOCH":24388,"BSTAR":0.000035486111,"MEAN_MOTION_DOT":2.6e-7,"MEAN_MOTION_DDOT":0},{"OBJECT_NAME":"ONEWEB-0257","OBJECT_ID":"2021-060J","EPOCH":"2026-07-19T11:27:33.973920","CLASSIFICATION_TYPE":"U","MEAN_MOTION":13.16594083,"ECCENTRICITY":0.00020527,"INCLINATION":87.9076,"RA_OF_ASC_NODE":222.3568,"ARG_OF_PERICENTER":97.2478,"MEAN_ANOMALY":262.8887,"EPHEMERIS_TYPE":0,"NORAD_CAT_ID":48975,"ELEMENT_SET_NO":999,"REV_AT_EPOCH":24383,"BSTAR":-0.00018788838,"MEAN_MOTION_DOT":-5.9e-7,"MEAN_MOTION_DDOT":0}]}
