ONEWEB-0233             
1 48795U 21045AE  26200.19107212  .00000011  00000+0 -45685-5 0  9993
2 48795  87.8978 252.8575 0002291 102.4748 257.6639 13.15550642248505
ONEWEB-0190             
1 48796U 21045AF  26200.55883074 -.00000154  00000+0 -44319-3 0  9991
2 48796  87.8986 252.7478 0002385 113.1881 246.9500 13.15548514248623
ONEWEB-0236             
1 48797U 21045AG  26200.19597883  .00000057  00000+0  11820-3 0  9993
2 48797  87.8975 252.8280 0002083  94.0293 266.1076 13.15548506248468
ONEWEB-0248             
1 48798U 21045AH  26200.66499098  .00000130  00000+0  31091-3 0  9999
2 48798  87.8996 252.7210 0002381 103.1906 256.9490 13.15548759248689
ONEWEB-0225             
1 48799U 21045AJ  26200.68718516  .00000045  00000+0  86531-4 0  9996
2 48799  87.8987 252.7238 0002299 110.7160 249.4217 13.15548224248696
ONEWEB-0215             
1 48800U 21045AK  26200.20072153  .00000050  00000+0  99948-4 0  9999
2 48800  87.8987 252.8050 0002484 111.6154 248.5242 13.15549762248507
ONEWEB-0216             
1 48801U 21045AL  26200.66658485  .00000089  00000+0  20293-3 0  9996
2 48801  87.8987 252.7259 0001937  96.5957 263.5394 13.15548359248575
ONEWEB-0239             
1 48802U 21045AM  26200.67134125  .00000113  00000+0  26592-3 0  9994
2 48802  87.8968 252.7283 0002770 107.5792 252.5641 13.15548019248619
ONEWEB-0249             
1 48967U 21060A   26200.50358097  .00000077  00000+0  16820-3 0  9993
2 48967  87.9075 222.3588 0002145  93.7175 266.4201 13.16592317243868
ONEWEB-0250             
1 48968U 21060B   26200.75865007  .00000038  00000+0  55553-4 0  9999
2 48968  87.9079 219.9580 0003020  81.5454 278.6024 13.25835640244537
ONEWEB-0252             
1 48970U 21060D   26200.45846696 -.00000028  00000+0 -10675-3 0  9998
2 48970  87.9080 222.3598 0001879  96.6456 263.4889 13.16595585243900
ONEWEB-0253             
1 48971U 21060E   26200.44738560  .00000105  00000+0  23991-3 0  9997
2 48971  87.9076 222.3670 0002166  91.0609 269.0771 13.16595633243834
ONEWEB-0254             
1 48972U 21060F   26200.76088213  .00000077  00000+0  16805-3 0  9990
2 48972  87.9081 222.3032 0002306  97.7816 262.3576 13.16595387243871
ONEWEB-0255             
1 48973U 21060G   26200.79888109 -.00000046  00000+0 -15380-3 0  9991
2 48973  87.9076 222.3019 0002188  96.8198 263.3182 13.16593770243959
ONEWEB-0256             
1 48974U 21060H   26200.52102319  .00000026  00000+0  35486-4 0  9991
2 48974  87.9075 222.3596 0001920  94.6178 265.5172 13.16595235243889
ONEWEB-0257             
1 48975U 21060J   26200.47747655 -.00000059  00000+0 -18789-3 0  9998
2 48975  87.9076 222.3568 0002052  97.2478 262.8887 13.16594083243837
